OBJECT_NAME,OBJECT_ID,EPOCH,MEAN_MOTION,ECCENTRICITY,INCLINATION,RA_OF_ASC_NODE,ARG_OF_PERICENTER,MEAN_ANOMALY,EPHEMERIS_TYPE,CLASSIFICATION_TYPE,NORAD_CAT_ID,ELEMENT_SET_NO,REV_AT_EPOCH,BSTAR,MEAN_MOTION_DOT,MEAN_MOTION_DDOT
STARLINK-3615,2022-017L,2023-06-14T10:25:34.328640,15.08842849,.000112,53.2158,134.8251,91.5553,268.5567,0,U,51778,999,7335,.53903E-4,.57E-5,0
STARLINK-3611,2022-017M,2023-06-14T08:39:05.085792,15.07640877,.0001433,53.2154,145.3242,95.2112,264.9043,0,U,51779,999,7319,.34775E-2,.53688E-3,0
STARLINK-3617,2022-017N,2023-06-13T22:50:04.860096,15.08841422,.0001143,53.2159,147.1486,85.5485,274.5638,0,U,51780,999,7318,.10343E-4,-.123E-5,0
STARLINK-3580,2022-017P,2023-06-13T23:02:03.557760,15.08827198,.0001262,53.2158,147.1301,92.0522,268.0615,0,U,51781,999,7314,.12399E-4,-.91E-6,0
STARLINK-3616,2022-017Q,2023-06-13T23:21:55.745568,15.08839226,.0001053,53.2153,157.0305,84.8680,275.2432,0,U,51782,999,7299,.20468E-4,.38E-6,0
STARLINK-3628,2022-017R,2023-06-14T08:29:04.585920,15.08841512,.0001259,53.2161,145.3634,87.5524,272.5612,0,U,51783,999,7319,.39011E-4,.333E-5,0
STARLINK-3632,2022-017S,2023-06-14T08:47:33.628416,15.08842346,.0000995,53.2161,155.2576,75.8364,284.2739,0,U,51784,999,7306,.66348E-4,.768E-5,0
STARLINK-3646,2022-017T,2023-06-14T08:17:05.212608,15.08843688,.0001085,53.2162,145.3508,84.5256,275.5859,0,U,51785,999,7324,.55672E-4,.598E-5,0
STARLINK-3638,2022-017U,2023-06-13T23:04:39.189216,15.08838835,.0001098,53.2160,157.0754,83.1337,276.9780,0,U,51786,999,7304,.44115E-4,.414E-5,0
STARLINK-3619,2022-017V,2023-06-14T08:58:09.406272,15.08843981,.0001199,53.2160,155.2231,81.1644,278.9484,0,U,51787,999,7305,.60679E-4,.678E-5,0
STARLINK-3641,2022-017W,2023-06-13T05:19:31.023840,15.08834320,.0001037,53.2155,160.3929,77.2063,282.9045,0,U,51788,999,7288,-.88407E-5,-.428E-5,0
STARLINK-3639,2022-017X,2023-06-14T05:31:29.660160,15.08840031,.0001131,53.2159,155.8688,82.9955,277.1166,0,U,51789,999,7304,.51345E-4,.529E-5,0
STARLINK-3631,2022-017Y,2023-06-14T06:40:21.402336,15.08855828,.0001059,53.2159,155.6509,89.2004,270.9109,0,U,51790,999,7309,.16395E-3,.2324E-4,0
STARLINK-3602,2022-017Z,2023-06-13T08:40:53.198976,15.08834968,.0001035,53.2158,159.7667,76.0521,284.0586,0,U,51791,999,7290,-.23094E-5,-.325E-5,0
STARLINK-3626,2022-017AA,2023-06-14T06:29:46.986144,15.08839326,.0001142,53.2160,155.6836,82.8547,277.2575,0,U,51792,999,7309,.2355E-4,.87E-6,0
STARLINK-3633,2022-017AB,2023-06-13T05:24:48.957696,15.08834502,.0000956,53.2157,160.3779,72.3679,287.7418,0,U,51793,999,7293,-.21189E-4,-.625E-5,0
STARLINK-3573,2022-017AC,2023-06-14T06:19:10.963776,15.08840155,.0001083,53.2159,155.7199,83.2599,276.8516,0,U,51794,999,7304,.31214E-4,.209E-5,0
STARLINK-3586,2022-017AD,2023-06-14T06:24:29.071296,15.08838713,.0001226,53.2165,155.7044,84.6998,275.4134,0,U,51795,999,7304,.10875E-5,-.271E-5,0
STARLINK-3630,2022-017AE,2023-06-13T17:20:12.600384,15.08828671,.0001526,53.2171,158.1423,102.7821,257.3342,0,U,51796,999,7295,.43369E-4,.402E-5,0
STARLINK-3627,2022-017AF,2023-06-14T10:28:21.657792,15.21975379,.0000681,53.1984,144.7463,103.8739,256.2334,0,U,51797,999,7326,-.41739E-3,-.9959E-4,0
STARLINK-3634,2022-017AG,2023-06-13T23:36:27.061056,15.08847068,.0000921,53.2153,156.9748,82.7137,277.3960,0,U,51798,999,7304,.25932E-4,.125E-5,0
STARLINK-3637,2022-017AH,2023-06-14T07:49:16.467456,15.08835621,.0001166,53.2155,155.4350,85.9846,274.1280,0,U,51799,999,7305,-.20398E-4,-.612E-5,0
STARLINK-3600,2022-017AJ,2023-06-14T05:42:01.689984,15.08863117,.0001263,53.2161,155.7860,77.4434,282.6699,0,U,51800,999,7308,.11457E-3,.1537E-4,0
STARLINK-3592,2022-017AK,2023-06-13T09:28:34.449888,15.08841651,.0001166,53.2152,159.6175,83.9098,276.2027,0,U,51801,999,7291,.51913E-4,.538E-5,0
STARLINK-3557,2022-017AL,2023-06-14T06:35:04.863840,15.08838443,.0001113,53.2163,155.6590,82.0934,278.0185,0,U,51802,999,7304,.42649E-4,.391E-5,0
STARLINK-3544,2022-017AM,2023-06-14T09:03:27.567360,15.08842698,.0001116,53.2157,155.2079,82.1916,277.9203,0,U,51803,999,7305,.11512E-4,-.105E-5,0
STARLINK-3601,2022-017AN,2023-06-14T07:46:36.934176,15.08844045,.0001261,53.2164,135.4448,92.0515,268.0622,0,U,51804,999,7338,.33869E-4,.251E-5,0
STARLINK-3605,2022-017AP,2023-06-14T04:31:55.683552,15.08841012,.0001215,53.2167,136.0656,89.3700,270.7431,0,U,51805,999,7335,.32696E-4,.233E-5,0
STARLINK-3581,2022-017AQ,2023-06-14T08:01:11.373024,15.08844622,.0001155,53.2159,145.4026,85.0412,275.0712,0,U,51806,999,7319,.91217E-4,.1164E-4,0
STARLINK-3606,2022-017AR,2023-06-14T08:11:47.388480,15.08842127,.0001125,53.2165,145.3675,83.6599,276.4522,0,U,51807,999,7324,.53661E-4,.566E-5,0
