STARLINK-3615           
1 51778U 22017L   23165.43442510  .00000570  00000+0  53903-4 0  9995
2 51778  53.2158 134.8251 0001120  91.5553 268.5567 15.08842849 73356
STARLINK-3611           
1 51779U 22017M   23165.36047553  .00053688  00000+0  34775-2 0  9998
2 51779  53.2154 145.3242 0001433  95.2112 264.9043 15.07640877 73196
STARLINK-3617           
1 51780U 22017N   23164.95144514 -.00000123  00000+0  10343-4 0  9993
2 51780  53.2159 147.1486 0001143  85.5485 274.5638 15.08841422 73182
STARLINK-3580           
1 51781U 22017P   23164.95976340 -.00000091  00000+0  12399-4 0  9991
2 51781  53.2158 147.1301 0001262  92.0522 268.0615 15.08827198 73148
STARLINK-3616           
1 51782U 22017Q   23164.97356187  .00000038  00000+0  20468-4 0  9991
2 51782  53.2153 157.0305 0001053  84.8680 275.2432 15.08839226 72994
STARLINK-3628           
1 51783U 22017R   23165.35352530  .00000333  00000+0  39011-4 0  9995
2 51783  53.2161 145.3634 0001259  87.5524 272.5612 15.08841512 73198
STARLINK-3632           
1 51784U 22017S   23165.36636144  .00000768  00000+0  66348-4 0  9998
2 51784  53.2161 155.2576 0000995  75.8364 284.2739 15.08842346 73064
STARLINK-3646           
1 51785U 22017T   23165.34519922  .00000598  00000+0  55672-4 0  9990
2 51785  53.2162 145.3508 0001085  84.5256 275.5859 15.08843688 73245
STARLINK-3638           
1 51786U 22017U   23164.96156469  .00000414  00000+0  44115-4 0  9998
2 51786  53.2160 157.0754 0001098  83.1337 276.9780 15.08838835 73040
STARLINK-3619           
1 51787U 22017V   23165.37371998  .00000678  00000+0  60679-4 0  9996
2 51787  53.2160 155.2231 0001199  81.1644 278.9484 15.08843981 73054
STARLINK-3641           
1 51788U 22017W   23164.22188685 -.00000428  00000+0 -88407-5 0  9994
2 51788  53.2155 160.3929 0001037  77.2063 282.9045 15.08834320 72887
STARLINK-3639           
1 51789U 22017X   23165.23020440  .00000529  00000+0  51345-4 0  9991
2 51789  53.2159 155.8688 0001131  82.9955 277.1166 15.08840031 73046
STARLINK-3631           
1 51790U 22017Y   23165.27802549  .00002324  00000+0  16395-3 0  9995
2 51790  53.2159 155.6509 0001059  89.2004 270.9109 15.08855828 73095
STARLINK-3602           
1 51791U 22017Z   23164.36172684 -.00000325  00000+0 -23094-5 0  9992
2 51791  53.2158 159.7667 0001035  76.0521 284.0586 15.08834968 72903
STARLINK-3626           
1 51792U 22017AA  23165.27068271  .00000087  00000+0  23550-4 0  9999
2 51792  53.2160 155.6836 0001142  82.8547 277.2575 15.08839326 73098
STARLINK-3633           
1 51793U 22017AB  23164.22556664 -.00000625  00000+0 -21189-4 0  9998
2 51793  53.2157 160.3779 0000956  72.3679 287.7418 15.08834502 72931
STARLINK-3573           
1 51794U 22017AC  23165.26332134  .00000209  00000+0  31214-4 0  9994
2 51794  53.2159 155.7199 0001083  83.2599 276.8516 15.08840155 73044
STARLINK-3586           
1 51795U 22017AD  23165.26700314 -.00000271  00000+0  10875-5 0  9995
2 51795  53.2165 155.7044 0001226  84.6998 275.4134 15.08838713 73046
STARLINK-3630           
1 51796U 22017AE  23164.72236806  .00000402  00000+0  43369-4 0  9994
2 51796  53.2171 158.1423 0001526 102.7821 257.3342 15.08828671 72953
STARLINK-3627           
1 51797U 22017AF  23165.43636178 -.00009959  00000+0 -41739-3 0  9996
2 51797  53.1984 144.7463 0000681 103.8739 256.2334 15.21975379 73268
STARLINK-3634           
1 51798U 22017AG  23164.98364654  .00000125  00000+0  25932-4 0  9995
2 51798  53.2153 156.9748 0000921  82.7137 277.3960 15.08847068 73046
STARLINK-3637           
1 51799U 22017AH  23165.32588504 -.00000612  00000+0 -20398-4 0  9991
2 51799  53.2155 155.4350 0001166  85.9846 274.1280 15.08835621 73059
STARLINK-3600           
1 51800U 22017AJ  23165.23751956  .00001537  00000+0  11457-3 0  9997
2 51800  53.2161 155.7860 0001263  77.4434 282.6699 15.08863117 73087
STARLINK-3592           
1 51801U 22017AK  23164.39484317  .00000538  00000+0  51913-4 0  9990
2 51801  53.2152 159.6175 0001166  83.9098 276.2027 15.08841651 72914
STARLINK-3557           
1 51802U 22017AL  23165.27436185  .00000391  00000+0  42649-4 0  9992
2 51802  53.2163 155.6590 0001113  82.0934 278.0185 15.08838443 73040
STARLINK-3544           
1 51803U 22017AM  23165.37740240 -.00000105  00000+0  11512-4 0  9993
2 51803  53.2157 155.2079 0001116  82.1916 277.9203 15.08842698 73053
STARLINK-3601           
1 51804U 22017AN  23165.32403859  .00000251  00000+0  33869-4 0  9991
2 51804  53.2164 135.4448 0001261  92.0515 268.0622 15.08844045 73388
STARLINK-3605           
1 51805U 22017AP  23165.18883893  .00000233  00000+0  32696-4 0  9993
2 51805  53.2167 136.0656 0001215  89.3700 270.7431 15.08841012 73350
STARLINK-3581           
1 51806U 22017AQ  23165.33415941  .00001164  00000+0  91217-4 0  9994
2 51806  53.2159 145.4026 0001155  85.0412 275.0712 15.08844622 73195
STARLINK-3606           
1 51807U 22017AR  23165.34152070  .00000566  00000+0  53661-4 0  9993
2 51807  53.2165 145.3675 0001125  83.6599 276.4522 15.08842127 73247
